ONEWEB-0311             
1 49097U 21075Y   26135.21543018  .00000041  00000+0  71865-4 0  9990
2 49097  87.9166  12.4177 0002084  94.0304 266.1066 13.17648294229289
ONEWEB-0312             
1 49098U 21075Z   26135.15466450  .00000081  00000+0  17599-3 0  9995
2 49098  87.9164  12.4413 0001676  93.0645 267.0679 13.17648174229258
ONEWEB-0313             
1 49099U 21075AA  26135.15960890  .00001390  00000+0  35454-2 0  9996
2 49099  87.9158  12.4467 0001908  85.1840 274.9509 13.17643588229240
ONEWEB-0314             
1 49100U 21075AB  26135.20192645  .00000093  00000+0  20653-3 0  9995
2 49100  87.9169  12.4077 0001715  96.8514 263.2813 13.17649254229228
ONEWEB-0315             
1 49101U 21075AC  26135.12156358 -.00000165  00000+0 -49296-3 0  9994
2 49101  87.8970 357.2183 0002095  91.3348 268.8021 13.12444928230830
ONEWEB-0316             
1 49102U 21075AD  26135.07665196  .00000010  00000+0 -68263-5 0  9999
2 49102  87.9168 342.0472 0001888  89.0129 271.1219 13.18684721232846
ONEWEB-0317             
1 49103U 21075AE  26135.12495165  .00000067  00000+0  15213-3 0  9999
2 49103  87.8972 357.2410 0001291  63.6447 296.4814 13.12445760230850
ONEWEB-0318             
1 49104U 21075AF  26135.07327817  .00000098  00000+0  21499-3 0  9999
2 49104  87.9176 342.0466 0002044  91.7362 268.4004 13.18684524232802
ONEWEB-0319             
1 49105U 21075AG  26135.21710799  .00000092  00000+0  20368-3 0  9999
2 49105  87.9165  12.4229 0002294  91.1131 269.0263 13.17651018229262
ONEWEB-0323             
1 49106U 21075AH  26135.10631334 -.00000371  00000+0 -10675-2 0  9996
2 49106  87.8970 357.2260 0002151  97.4075 262.7298 13.12441571230210
ONEWEB-0329             
1 49107U 21075AJ  26135.14960866  .00000066  00000+0  13609-3 0  9996
2 49107  87.9163  12.4372 0001774  87.5663 272.5672 13.17650006229238
ONEWEB-0330             
1 49108U 21075AK  26135.17337782  .00000111  00000+0  25269-3 0  9991
2 49108  87.9165  12.4521 0001623  87.8529 272.2789 13.17648217229275
ONEWEB-0292             
1 49186U 21083A   26135.02829557 -.00000199  00000+0 -58016-3 0  9990
2 49186  87.8930 326.8483 0001949  92.5092 267.6261 13.13471768226572
ONEWEB-0303             
1 49187U 21083B   26135.06990757  .00000086  00000+0  18605-3 0  9999
2 49187  87.9171 342.0477 0001959  90.9707 269.1649 13.18684665225618
ONEWEB-0306             
1 49188U 21083C   26135.13566827  .00000048  00000+0  87752-4 0  9993
2 49188  87.9178 342.0204 0001662  83.1234 277.0087 13.18685160225664
ONEWEB-0307             
1 49189U 21083D   26135.09854187 -.00000395  00000+0 -11178-2 0  9992
2 49189  87.8944 326.8283 0001848  93.2902 266.8438 13.13469662226582
