[{"OBJECT_NAME":"ONEWEB-0311","OBJECT_ID":"2021-075Y","EPOCH":"2026-05-15T05:10:13.167552","MEAN_MOTION":13.17648294,"ECCENTRICITY":0.0002084,"INCLINATION":87.9166,"RA_OF_ASC_NODE":12.4177,"ARG_OF_PERICENTER":94.0304,"MEAN_ANOMALY":266.1066,"EPHEMERIS_TYPE":0,"CLASSIFICATION_TYPE":"U","NORAD_CAT_ID":49097,"ELEMENT_SET_NO":999,"REV_AT_EPOCH":22928,"BSTAR":7.1865e-05,"MEAN_MOTION_DOT":4.1e-07,"MEAN_MOTION_DDOT":0.0},{"OBJECT_NAME":"ONEWEB-0312","OBJECT_ID":"2021-075Z","EPOCH":"2026-05-15T03:42:43.012800","MEAN_MOTION":13.17648174,"ECCENTRICITY":0.0001676,"INCLINATION":87.9164,"RA_OF_ASC_NODE":12.4413,"ARG_OF_PERICENTER":93.0645,"MEAN_ANOMALY":267.0679,"EPHEMERIS_TYPE":0,"CLASSIFICATION_TYPE":"U","NORAD_CAT_ID":49098,"ELEMENT_SET_NO":999,"REV_AT_EPOCH":22925,"BSTAR":0.00017599,"MEAN_MOTION_DOT":8.1e-07,"MEAN_MOTION_DDOT":0.0},{"OBJECT_NAME":"ONEWEB-0313","OBJECT_ID":"2021-075AA","EPOCH":"2026-05-15T03:49:50.208960","MEAN_MOTION":13.17643588,"ECCENTRICITY":0.0001908,"INCLINATION":87.9158,"RA_OF_ASC_NODE":12.4467,"ARG_OF_PERICENTER":85.184,"MEAN_ANOMALY":274.9509,"EPHEMERIS_TYPE":0,"CLASSIFICATION_TYPE":"U","NORAD_CAT_ID":49099,"ELEMENT_SET_NO":999,"REV_AT_EPOCH":22924,"BSTAR":0.0035454,"MEAN_MOTION_DOT":1.39e-05,"MEAN_MOTION_DDOT":0.0},{"OBJECT_NAME":"ONEWEB-0314","OBJECT_ID":"2021-075AB","EPOCH":"2026-05-15T04:50:46.445280","MEAN_MOTION":13.17649254,"ECCENTRICITY":0.0001715,"INCLINATION":87.9169,"RA_OF_ASC_NODE":12.4077,"ARG_OF_PERICENTER":96.8514,"MEAN_ANOMALY":263.2813,"EPHEMERIS_TYPE":0,"CLASSIFICATION_TYPE":"U","NORAD_CAT_ID":49100,"ELEMENT_SET_NO":999,"REV_AT_EPOCH":22922,"BSTAR":0.00020653,"MEAN_MOTION_DOT":9.3e-07,"MEAN_MOTION_DDOT":0.0},{"OBJECT_NAME":"ONEWEB-0315","OBJECT_ID":"2021-075AC","EPOCH":"2026-05-15T02:55:03.093312","MEAN_MOTION":13.12444928,"ECCENTRICITY":0.0002095,"INCLINATION":87.897,"RA_OF_ASC_NODE":357.2183,"ARG_OF_PERICENTER":91.3348,"MEAN_ANOMALY":268.8021,"EPHEMERIS_TYPE":0,"CLASSIFICATION_TYPE":"U","NORAD_CAT_ID":49101,"ELEMENT_SET_NO":999,"REV_AT_EPOCH":23083,"BSTAR":-0.00049296,"MEAN_MOTION_DOT":-1.65e-06,"MEAN_MOTION_DDOT":0.0},{"OBJECT_NAME":"ONEWEB-0316","OBJECT_ID":"2021-075AD","EPOCH":"2026-05-15T01:50:22.729344","MEAN_MOTION":13.18684721,"ECCENTRICITY":0.0001888,"INCLINATION":87.9168,"RA_OF_ASC_NODE":342.0472,"ARG_OF_PERICENTER":89.0129,"MEAN_ANOMALY":271.1219,"EPHEMERIS_TYPE":0,"CLASSIFICATION_TYPE":"U","NORAD_CAT_ID":49102,"ELEMENT_SET_NO":999,"REV_AT_EPOCH":23284,"BSTAR":-6.8263e-06,"MEAN_MOTION_DOT":1e-07,"MEAN_MOTION_DDOT":0.0},{"OBJECT_NAME":"ONEWEB-0317","OBJECT_ID":"2021-075AE","EPOCH":"2026-05-15T02:59:55.822560","MEAN_MOTION":13.1244576,"ECCENTRICITY":0.0001291,"INCLINATION":87.8972,"RA_OF_ASC_NODE":357.241,"ARG_OF_PERICENTER":63.6447,"MEAN_ANOMALY":296.4814,"EPHEMERIS_TYPE":0,"CLASSIFICATION_TYPE":"U","NORAD_CAT_ID":49103,"ELEMENT_SET_NO":999,"REV_AT_EPOCH":23085,"BSTAR":0.00015213,"MEAN_MOTION_DOT":6.7e-07,"MEAN_MOTION_DDOT":0.0},{"OBJECT_NAME":"ONEWEB-0318","OBJECT_ID":"2021-075AF","EPOCH":"2026-05-15T01:45:31.233888","MEAN_MOTION":13.18684524,"ECCENTRICITY":0.0002044,"INCLINATION":87.9176,"RA_OF_ASC_NODE":342.0466,"ARG_OF_PERICENTER":91.7362,"MEAN_ANOMALY":268.4004,"EPHEMERIS_TYPE":0,"CLASSIFICATION_TYPE":"U","NORAD_CAT_ID":49104,"ELEMENT_SET_NO":999,"REV_AT_EPOCH":23280,"BSTAR":0.00021499,"MEAN_MOTION_DOT":9.8e-07,"MEAN_MOTION_DDOT":0.0},{"OBJECT_NAME":"ONEWEB-0319","OBJECT_ID":"2021-075AG","EPOCH":"2026-05-15T05:12:38.130336","MEAN_MOTION":13.17651018,"ECCENTRICITY":0.0002294,"INCLINATION":87.9165,"RA_OF_ASC_NODE":12.4229,"ARG_OF_PERICENTER":91.1131,"MEAN_ANOMALY":269.0263,"EPHEMERIS_TYPE":0,"CLASSIFICATION_TYPE":"U","NORAD_CAT_ID":49105,"ELEMENT_SET_NO":999,"REV_AT_EPOCH":22926,"BSTAR":0.00020368,"MEAN_MOTION_DOT":9.2e-07,"MEAN_MOTION_DDOT":0.0},{"OBJECT_NAME":"ONEWEB-0323","OBJECT_ID":"2021-075AH","EPOCH":"2026-05-15T02:33:05.472576","MEAN_MOTION":13.12441571,"ECCENTRICITY":0.0002151,"INCLINATION":87.897,"RA_OF_ASC_NODE":357.226,"ARG_OF_PERICENTER":97.4075,"MEAN_ANOMALY":262.7298,"EPHEMERIS_TYPE":0,"CLASSIFICATION_TYPE":"U","NORAD_CAT_ID":49106,"ELEMENT_SET_NO":999,"REV_AT_EPOCH":23021,"BSTAR":-0.0010675,"MEAN_MOTION_DOT":-3.71e-06,"MEAN_MOTION_DDOT":0.0},{"OBJECT_NAME":"ONEWEB-0329","OBJECT_ID":"2021-075AJ","EPOCH":"2026-05-15T03:35:26.188224","MEAN_MOTION":13.17650006,"ECCENTRICITY":0.0001774,"INCLINATION":87.9163,"RA_OF_ASC_NODE":12.4372,"ARG_OF_PERICENTER":87.5663,"MEAN_ANOMALY":272.5672,"EPHEMERIS_TYPE":0,"CLASSIFICATION_TYPE":"U","NORAD_CAT_ID":49107,"ELEMENT_SET_NO":999,"REV_AT_EPOCH":22923,"BSTAR":0.00013608999999999998,"MEAN_MOTION_DOT":6.6e-07,"MEAN_MOTION_DDOT":0.0},{"OBJECT_NAME":"ONEWEB-0330","OBJECT_ID":"2021-075AK","EPOCH":"2026-05-15T04:09:39.843648","MEAN_MOTION":13.17648217,"ECCENTRICITY":0.0001623,"INCLINATION":87.9165,"RA_OF_ASC_NODE":12.4521,"ARG_OF_PERICENTER":87.8529,"MEAN_ANOMALY":272.2789,"EPHEMERIS_TYPE":0,"CLASSIFICATION_TYPE":"U","NORAD_CAT_ID":49108,"ELEMENT_SET_NO":999,"REV_AT_EPOCH":22927,"BSTAR":0.00025269,"MEAN_MOTION_DOT":1.11e-06,"MEAN_MOTION_DDOT":0.0},{"OBJECT_NAME":"ONEWEB-0292","OBJECT_ID":"2021-083A","EPOCH":"2026-05-15T00:40:44.737248","MEAN_MOTION":13.13471768,"ECCENTRICITY":0.0001949,"INCLINATION":87.893,"RA_OF_ASC_NODE":326.8483,"ARG_OF_PERICENTER":92.5092,"MEAN_ANOMALY":267.6261,"EPHEMERIS_TYPE":0,"CLASSIFICATION_TYPE":"U","NORAD_CAT_ID":49186,"ELEMENT_SET_NO":999,"REV_AT_EPOCH":22657,"BSTAR":-0.00058016,"MEAN_MOTION_DOT":-1.99e-06,"MEAN_MOTION_DDOT":0.0},{"OBJECT_NAME":"ONEWEB-0303","OBJECT_ID":"2021-083B","EPOCH":"2026-05-15T01:40:40.014048","MEAN_MOTION":13.18684665,"ECCENTRICITY":0.0001959,"INCLINATION":87.9171,"RA_OF_ASC_NODE":342.0477,"ARG_OF_PERICENTER":90.9707,"MEAN_ANOMALY":269.1649,"EPHEMERIS_TYPE":0,"CLASSIFICATION_TYPE":"U","NORAD_CAT_ID":49187,"ELEMENT_SET_NO":999,"REV_AT_EPOCH":22561,"BSTAR":0.00018605,"MEAN_MOTION_DOT":8.6e-07,"MEAN_MOTION_DDOT":0.0},{"OBJECT_NAME":"ONEWEB-0306","OBJECT_ID":"2021-083C","EPOCH":"2026-05-15T03:15:21.738528","MEAN_MOTION":13.1868516,"ECCENTRICITY":0.0001662,"INCLINATION":87.9178,"RA_OF_ASC_NODE":342.0204,"ARG_OF_PERICENTER":83.1234,"MEAN_ANOMALY":277.0087,"EPHEMERIS_TYPE":0,"CLASSIFICATION_TYPE":"U","NORAD_CAT_ID":49188,"ELEMENT_SET_NO":999,"REV_AT_EPOCH":22566,"BSTAR":8.7752e-05,"MEAN_MOTION_DOT":4.8e-07,"MEAN_MOTION_DDOT":0.0},{"OBJECT_NAME":"ONEWEB-0307","OBJECT_ID":"2021-083D","EPOCH":"2026-05-15T02:21:54.017568","MEAN_MOTION":13.13469662,"ECCENTRICITY":0.0001848,"INCLINATION":87.8944,"RA_OF_ASC_NODE":326.8283,"ARG_OF_PERICENTER":93.2902,"MEAN_ANOMALY":266.8438,"EPHEMERIS_TYPE":0,"CLASSIFICATION_TYPE":"U","NORAD_CAT_ID":49189,"ELEMENT_SET_NO":999,"REV_AT_EPOCH":22658,"BSTAR":-0.0011178000000000002,"MEAN_MOTION_DOT":-3.95e-06,"MEAN_MOTION_DDOT":0.0}]